{
    "links": {
        "self": "http://www.neowsapp.com/rest/v1/neo/3447912?api_key=iIulBulltgU6a56xZRHN4H3l9WmuAYTsLGpBGhQ2"
    },
    "id": "3447912",
    "neo_reference_id": "3447912",
    "name": "(2009 DX)",
    "designation": "2009 DX",
    "nasa_jpl_url": "http://ssd.jpl.nasa.gov/sbdb.cgi?sstr=3447912",
    "absolute_magnitude_h": 24.7,
    "estimated_diameter": {
        "kilometers": {
            "estimated_diameter_min": 0.0305179233,
            "estimated_diameter_max": 0.0682401509
        },
        "meters": {
            "estimated_diameter_min": 30.5179232594,
            "estimated_diameter_max": 68.2401509401
        },
        "miles": {
            "estimated_diameter_min": 0.0189629525,
            "estimated_diameter_max": 0.0424024508
        },
        "feet": {
            "estimated_diameter_min": 100.1244233463,
            "estimated_diameter_max": 223.8850168104
        }
    },
    "is_potentially_hazardous_asteroid": false,
    "close_approach_data": [
        {
            "close_approach_date": "2009-02-21",
            "close_approach_date_full": "2009-Feb-21 04:31",
            "epoch_date_close_approach": 1235190660000,
            "relative_velocity": {
                "kilometers_per_second": "11.6433088124",
                "kilometers_per_hour": "41915.9117247599",
                "miles_per_hour": "26044.917482532"
            },
            "miss_distance": {
                "astronomical": "0.0676613509",
                "lunar": "26.3202655001",
                "kilometers": "10121993.975962583",
                "miles": "6289515.4079583254"
            },
            "orbiting_body": "Earth"
        }
    ],
    "orbital_data": {
        "orbit_id": "6",
        "orbit_determination_date": "2017-04-06 09:01:19",
        "first_observation_date": "2009-02-18",
        "last_observation_date": "2009-02-19",
        "data_arc_in_days": 1,
        "observations_used": 11,
        "orbit_uncertainty": "9",
        "minimum_orbit_intersection": ".059666",
        "jupiter_tisserand_invariant": "3.230",
        "epoch_osculation": "2454881.5",
        "eccentricity": ".5743186853318104",
        "semi_major_axis": "2.420861905440891",
        "inclination": "14.65744395972379",
        "ascending_node_longitude": "150.4179231237363",
        "orbital_period": "1375.794128093675",
        "perihelion_distance": "1.030515678538217",
        "perihelion_argument": "20.84248467797459",
        "aphelion_distance": "3.811208132343565",
        "perihelion_time": "2454898.127244187659",
        "mean_anomaly": "355.6491979538746",
        "mean_motion": ".2616670566102957",
        "equinox": "J2000",
        "orbit_class": {
            "orbit_class_type": "AMO",
            "orbit_class_description": "Near-Earth asteroid orbits similar to that of 1221 Amor",
            "orbit_class_range": "1.017 AU < q (perihelion) < 1.3 AU"
        }
    },
    "is_sentry_object": false
}